NORAD_CAT_ID,OBJECT_NAME,OBJECT_TYPE,EPOCH,MEAN_MOTION,ECCENTRICITY,INCLINATION,RA_OF_ASC_NODE,ARG_OF_PERICENTER,MEAN_ANOMALY,BSTAR,MEAN_MOTION_DOT,MEAN_MOTION_DDOT,TLE_LINE0,TLE_LINE1,TLE_LINE2,SEMIMAJOR_AXIS,PERIOD,APOGEE,PERIGEE,DECAYED
54010.0,STARLINK-5127,PAYLOAD,2024-07-26 17:25:06,15.08846061,0.000158,53.2153,336.6344,86.373,273.7443,0.00013004,1.783e-05,0.0,0 STARLINK-5127,1 54010U 22125AY  24208.72577059  .00001783  00000-0  13004-3 0  9990,2 54010  53.2153 336.6344 0001580  86.3730 273.7443 15.08846061100393,6917.862,95.437,540.82,538.634,0.0
54010.0,STARLINK-5127,PAYLOAD,2024-07-27 17:15:55,15.08829818,0.0001925,53.2164,332.1729,81.3025,278.8186,-4.2709e-05,-9.68e-06,0.0,0 STARLINK-5127,1 54010U 22125AY  24209.71939171 -.00000968  00000-0 -42709-4 0  9998,2 54010  53.2164 332.1729 0001925  81.3025 278.8186 15.08829818100546,6917.912,95.438,541.108,538.445,0.0
54010.0,STARLINK-5127,PAYLOAD,2024-07-28 01:12:50,15.0883754,0.0001743,53.2152,330.6861,82.8986,277.2205,8.788e-05,1.111e-05,0.0,0 STARLINK-5127,1 54010U 22125AY  24210.05058344  .00001111  00000-0  87880-4 0  9999,2 54010  53.2152 330.6861 0001743  82.8986 277.2205 15.08837540100640,6917.888,95.438,540.959,538.547,0.0
54010.0,STARLINK-5127,PAYLOAD,2024-07-28 12:20:31,15.08858509,0.0002089,53.2157,328.6038,82.568,277.555,8.5721e-05,1.077e-05,0.0,0 STARLINK-5127,1 54010U 22125AY  24210.51424964  .00001077  00000-0  85721-4 0  9998,2 54010  53.2157 328.6038 0002089  82.5680 277.5550 15.08858509100712,6917.824,95.436,541.134,538.244,0.0
54010.0,STARLINK-5127,PAYLOAD,2024-07-28 15:31:16,15.08863595,0.000128,53.216,328.0122,114.1705,245.9421,0.00018692,2.69e-05,0.0,0 STARLINK-5127,1 54010U 22125AY  24210.64672011  .00002690  00000-0  18692-3 0  9994,2 54010  53.2160 328.0122 0001280 114.1705 245.9421 15.08863595100689,6917.808,95.436,540.559,538.788,0.0
54010.0,STARLINK-5127,PAYLOAD,2024-07-29 01:03:37,15.08837727,0.0001601,53.2179,326.2256,81.1638,278.9536,0.00019039,2.743e-05,0.0,0 STARLINK-5127,1 54010U 22125AY  24211.04417941  .00002743  00000-0  19039-3 0  9993,2 54010  53.2179 326.2256 0001601  81.1638 278.9536 15.08837727100795,6917.887,95.438,540.86,538.645,0.0
54010.0,STARLINK-5127,PAYLOAD,2024-07-29 13:46:42,15.08842006,9.48e-05,53.2184,323.8462,82.2393,277.8707,6.6786e-05,7.75e-06,0.0,0 STARLINK-5127,1 54010U 22125AY  24211.57409967  .00000775  00000-0  66786-4 0  9995,2 54010  53.2184 323.8462 0000948  82.2393 277.8707 15.08842006100824,6917.874,95.437,540.395,539.083,0.0
54010.0,STARLINK-5127,PAYLOAD,2024-07-29 16:57:28,15.08841657,8.6e-05,53.2178,323.2499,84.7502,275.3589,6.1785e-05,6.96e-06,0.0,0 STARLINK-5127,1 54010U 22125AY  24211.70657973  .00000696  00000-0  61785-4 0  9998,2 54010  53.2178 323.2499 0000860  84.7502 275.3589 15.08841657100847,6917.875,95.437,540.335,539.145,0.0
54010.0,STARLINK-5127,PAYLOAD,2024-07-30 00:54:24,15.08839774,9.25e-05,53.217,321.7651,79.9937,280.116,4.0738e-05,3.61e-06,0.0,0 STARLINK-5127,1 54010U 22125AY  24212.03778173  .00000361  00000-0  40738-4 0  9995,2 54010  53.2170 321.7651 0000925  79.9937 280.1160 15.08839774100949,6917.881,95.438,540.386,539.106,0.0
54010.0,STARLINK-5127,PAYLOAD,2024-07-30 13:37:29,15.08845843,0.0001328,53.217,319.386,79.6098,280.5043,1.1483e-05,-1.05e-06,0.0,0 STARLINK-5127,1 54010U 22125AY  24212.56769897 -.00000105  00000-0  11483-4 0  9998,2 54010  53.2170 319.3860 0001328  79.6098 280.5043 15.08845843100978,6917.863,95.437,540.646,538.809,0.0
54010.0,STARLINK-5127,PAYLOAD,2024-07-31 13:28:16,15.08846305,0.0001089,53.2167,314.9228,94.2544,265.8573,-8.9241e-05,-1.708e-05,0.0,0 STARLINK-5127,1 54010U 22125AY  24213.56130389 -.00001708  00000-0 -89241-4 0  9995,2 54010  53.2167 314.9228 0001089  94.2544 265.8573 15.08846305101122,6917.861,95.437,540.479,538.973,0.0
54010.0,STARLINK-5127,PAYLOAD,2024-07-31 16:39:02,15.08842457,0.0001244,53.2168,314.3285,94.8448,265.2686,-3.9843e-05,-9.22e-06,0.0,0 STARLINK-5127,1 54010U 22125AY  24213.69378470 -.00000922  00000-0 -39843-4 0  9994,2 54010  53.2168 314.3285 0001244  94.8448 265.2686 15.08842457101147,6917.873,95.437,540.598,538.877,0.0
54010.0,STARLINK-5127,PAYLOAD,2024-08-01 11:43:40,15.0884437,0.0001208,53.219,310.7638,67.4664,292.6456,0.00017115,2.437e-05,0.0,0 STARLINK-5127,1 54010U 22125AY  24214.48865900  .00002437  00000-0  17115-3 0  9999,2 54010  53.2190 310.7638 0001208  67.4664 292.6456 15.08844370101314,6917.867,95.437,540.568,538.896,0.0
54010.0,STARLINK-5127,PAYLOAD,2024-08-01 16:29:48,15.08857525,0.0001265,53.2175,309.869,100.6306,259.4829,0.0002788,4.154e-05,0.0,0 STARLINK-5127,1 54010U 22125AY  24214.68736591  .00004154  00000-0  27880-3 0  9992,2 54010  53.2175 309.8690 0001265 100.6306 259.4829 15.08857525101344,6917.827,95.436,540.567,538.817,0.0
54010.0,STARLINK-5127,PAYLOAD,2024-08-01 22:51:21,15.08852941,0.0001228,53.2168,308.6768,70.2349,289.8775,0.0002208,3.229e-05,0.0,0 STARLINK-5127,1 54010U 22125AY  24214.95232893  .00003229  00000-0  22080-3 0  9997,2 54010  53.2168 308.6768 0001228  70.2349 289.8775 15.08852941101385,6917.841,95.437,540.555,538.856,0.0
54010.0,STARLINK-5127,PAYLOAD,2024-08-02 13:09:51,15.08834174,0.0001558,53.2185,306.0098,96.853,263.2639,1.9768e-05,2.7e-07,0.0,0 STARLINK-5127,1 54010U 22125AY  24215.54851332  .00000027  00000-0  19768-4 0  9991,2 54010  53.2185 306.0098 0001558  96.8530 263.2639 15.08834174101477,6917.898,95.438,540.841,538.685,0.0
54010.0,STARLINK-5127,PAYLOAD,2024-08-03 05:03:42,15.08841083,0.0001437,53.2179,303.0338,82.7926,277.3229,4.6181e-05,4.47e-06,0.0,0 STARLINK-5127,1 54010U 22125AY  24216.21090698  .00000447  00000-0  46181-4 0  9991,2 54010  53.2179 303.0338 0001437  82.7926 277.3229 15.08841083101572,6917.877,95.437,540.736,538.748,0.0
54010.0,STARLINK-5127,PAYLOAD,2024-08-03 11:25:14,15.08848674,0.0001548,53.2169,301.8448,94.1475,265.9694,-3.814e-05,-8.95e-06,0.0,0 STARLINK-5127,1 54010U 22125AY  24216.47586012 -.00000895  00000-0 -38140-4 0  9994,2 54010  53.2169 301.8448 0001548  94.1475 265.9694 15.08848674101615,6917.854,95.437,540.79,538.648,0.0
54010.0,STARLINK-5127,PAYLOAD,2024-08-03 22:32:56,15.08846176,0.0001446,53.2157,299.7624,85.73,274.3857,-4.6263e-05,-1.024e-05,0.0,0 STARLINK-5127,1 54010U 22125AY  24216.93954059 -.00001024  00000-0 -46263-4 0  9995,2 54010  53.2157 299.7624 0001446  85.7300 274.3857 15.08846176101635,6917.862,95.437,540.727,538.726,0.0
54010.0,STARLINK-5127,PAYLOAD,2024-08-04 12:51:24,15.0884635,0.0001499,53.2156,297.0861,104.3254,255.7905,0.00024247,3.574e-05,0.0,0 STARLINK-5127,1 54010U 22125AY  24217.53570352  .00003574  00000-0  24247-3 0  9999,2 54010  53.2156 297.0861 0001499 104.3254 255.7905 15.08846350101778,6917.861,95.437,540.763,538.689,0.0
54010.0,STARLINK-5127,PAYLOAD,2024-08-04 22:23:43,15.08851667,0.0001549,53.2157,295.3021,83.6843,276.4325,0.00028464,4.246e-05,0.0,0 STARLINK-5127,1 54010U 22125AY  24217.93314173  .00004246  00000-0  28464-3 0  9992,2 54010  53.2157 295.3021 0001549  83.6843 276.4325 15.08851667101781,6917.845,95.437,540.781,538.638,0.0
54010.0,STARLINK-5127,PAYLOAD,2024-08-05 22:14:30,15.08840501,0.0001677,53.2172,290.8406,89.583,270.5354,7.9096e-06,-1.62e-06,0.0,0 STARLINK-5127,1 54010U 22125AY  24218.92674278 -.00000162  00000-0  79096-5 0  9990,2 54010  53.2172 290.8406 0001677  89.5830 270.5354 15.08840501101937,6917.879,95.438,540.904,538.584,0.0
54010.0,STARLINK-5127,PAYLOAD,2024-08-06 04:36:04,15.08817201,0.0001581,53.2175,289.6502,99.5193,260.5978,-0.00022144,-3.808e-05,0.0,0 STARLINK-5127,1 54010U 22125AY  24219.19171737 -.00003808  00000-0 -22144-3 0  9993,2 54010  53.2175 289.6502 0001581  99.5193 260.5978 15.08817201102023,6917.95,95.439,540.909,538.721,0.0
54010.0,STARLINK-5127,PAYLOAD,2024-08-06 10:57:36,15.08822126,0.0001471,53.2162,288.4631,96.5182,263.5977,-0.00013706,-2.468e-05,0.0,0 STARLINK-5127,1 54010U 22125AY  24219.45667729 -.00002468  00000-0 -13706-3 0  9998,2 54010  53.2162 288.4631 0001471  96.5182 263.5977 15.08822126102015,6917.935,95.439,540.818,538.782,0.0
54010.0,STARLINK-5127,PAYLOAD,2024-08-07 10:48:23,15.08848272,0.0001513,53.2149,283.9998,102.6721,257.444,0.00027948,4.164e-05,0.0,0 STARLINK-5127,1 54010U 22125AY  24220.45026698  .00004164  00000-0  27948-3 0  9990,2 54010  53.2149 283.9998 0001513 102.6721 257.4440 15.08848272102210,6917.855,95.437,540.767,538.673,0.0
54010.0,STARLINK-5127,PAYLOAD,2024-08-08 10:39:10,15.08851409,0.0001698,53.2156,279.5395,110.2887,249.8288,0.00040122,6.105e-05,0.0,0 STARLINK-5127,1 54010U 22125AY  24221.44386642  .00006105  00000-0  40122-3 0  9994,2 54010  53.2156 279.5395 0001698 110.2887 249.8288 15.08851409102314,6917.846,95.437,540.885,538.536,0.0
54010.0,STARLINK-5127,PAYLOAD,2024-08-09 04:08:24,15.08844115,0.0001565,53.2153,276.2679,103.7253,256.3914,0.00010488,1.382e-05,0.0,0 STARLINK-5127,1 54010U 22125AY  24222.17250779  .00001382  00000-0  10488-3 0  9990,2 54010  53.2153 276.2679 0001565 103.7253 256.3914 15.08844115102479,6917.868,95.437,540.815,538.65,0.0
54010.0,STARLINK-5127,PAYLOAD,2024-08-09 10:29:57,15.08843928,0.0001494,53.2154,275.0792,92.5963,267.52,9.476e-05,1.221e-05,0.0,0 STARLINK-5127,1 54010U 22125AY  24222.43746781  .00001221  00000-0  94760-4 0  9990,2 54010  53.2154 275.0792 0001494  92.5963 267.5200 15.08843928102469,6917.868,95.437,540.767,538.7,0.0
54010.0,STARLINK-5127,PAYLOAD,2024-08-09 20:02:16,15.08840477,0.0001489,53.2151,273.2942,88.7209,271.3953,5.3061e-05,5.57e-06,0.0,0 STARLINK-5127,1 54010U 22125AY  24222.83490930  .00000557  00000-0  53061-4 0  9996,2 54010  53.2151 273.2942 0001489  88.7209 271.3953 15.08840477102528,6917.879,95.438,540.774,538.714,0.0
54010.0,STARLINK-5127,PAYLOAD,2024-08-10 02:23:48,15.08838462,0.0001503,53.2157,272.1065,88.8169,271.2995,4.0984e-05,3.64e-06,0.0,0 STARLINK-5127,1 54010U 22125AY  24223.09987075  .00000364  00000-0  40984-4 0  9992,2 54010  53.2157 272.1065 0001503  88.8169 271.2995 15.08838462102617,6917.885,95.438,540.79,538.71,0.0
